start=new Date('2022-03-27T00:00:00.000Z').valueOf();
sats=[{"LAUNCH_DATE":"2020-06-04","OBJECT_ID":"2020-035N","TLE_LINE2":"2 45669  53.0556  69.0452 0001943  55.0974 305.0197 15.06393468101089","COUNTRY_CODE":"US","TIME_SYSTEM":"UTC","CLASSIFICATION_TYPE":"U","SEMIMAJOR_AXIS":"6925.369","EPHEMERIS_TYPE":"0","FILE":"3375650","BSTAR":"-0.00002479500000","MEAN_ANOMALY":"305.0197","APOAPSIS":"548.579","PERIAPSIS":"545.888","OBJECT_TYPE":"PAYLOAD","MEAN_MOTION_DDOT":"0.0000000000000","OBJECT_NAME":"STARLINK-1452","EPOCH":"2022-03-26T16:12:49.400928","GP_ID":"199778560","INCLINATION":"53.0556","REF_FRAME":"TEME","SITE":"AFETR","CENTER_NAME":"EARTH","RCS_SIZE":"LARGE","TLE_LINE1":"1 45669U 20035N   22085.67557177 -.00000651  00000-0 -24795-4 0  9997","ARG_OF_PERICENTER":"55.0974","DECAY_DATE":null,"REV_AT_EPOCH":"10108","PERIOD":"95.593","MEAN_MOTION_DOT":"-0.00000651","RA_OF_ASC_NODE":"69.0452","NORAD_CAT_ID":"45669","ELEMENT_SET_NO":"999","ECCENTRICITY":"0.00019430","MEAN_ELEMENT_THEORY":"SGP4","MEAN_MOTION":"15.06393468"},{"MEAN_MOTION":"15.06391708","ECCENTRICITY":"0.00018170","MEAN_ELEMENT_THEORY":"SGP4","ELEMENT_SET_NO":"999","DECAY_DATE":null,"REV_AT_EPOCH":"10141","PERIOD":"95.593","RA_OF_ASC_NODE":"38.4952","MEAN_MOTION_DOT":"-0.00000044","NORAD_CAT_ID":"45670","CENTER_NAME":"EARTH","RCS_SIZE":"LARGE","TLE_LINE1":"1 45670U 20035P   22085.79996780 -.00000044  00000-0  15977-4 0  9996","ARG_OF_PERICENTER":"51.3113","INCLINATION":"53.0564","SITE":"AFETR","REF_FRAME":"TEME","MEAN_MOTION_DDOT":"0.0000000000000","OBJECT_NAME":"STARLINK-1453","GP_ID":"199777308","EPOCH":"2022-03-26T19:11:57.217920","MEAN_ANOMALY":"308.8038","APOAPSIS":"548.497","PERIAPSIS":"545.981","OBJECT_TYPE":"PAYLOAD","BSTAR":"0.00001597700000","FILE":"3375650","SEMIMAJOR_AXIS":"6925.374","EPHEMERIS_TYPE":"0","TIME_SYSTEM":"UTC","CLASSIFICATION_TYPE":"U","COUNTRY_CODE":"US","OBJECT_ID":"2020-035P","LAUNCH_DATE":"2020-06-04","TLE_LINE2":"2 45670  53.0564  38.4952 0001817  51.3113 308.8038 15.06391708101416"},{"TLE_LINE2":"2 45671  53.0547  69.0269 0001865  60.7399 299.3776 15.06399580101073","OBJECT_ID":"2020-035Q","LAUNCH_DATE":"2020-06-04","CLASSIFICATION_TYPE":"U","TIME_SYSTEM":"UTC","COUNTRY_CODE":"US","FILE":"3375650","BSTAR":"0.00006402000000","EPHEMERIS_TYPE":"0","SEMIMAJOR_AXIS":"6925.350","OBJECT_TYPE":"PAYLOAD","APOAPSIS":"548.506","PERIAPSIS":"545.923","MEAN_ANOMALY":"299.3776","SITE":"AFETR","REF_FRAME":"TEME","INCLINATION":"53.0547","EPOCH":"2022-03-26T16:18:07.594848","GP_ID":"199777058","OBJECT_NAME":"STARLINK-1454","MEAN_MOTION_DDOT":"0.0000000000000","NORAD_CAT_ID":"45671","PERIOD":"95.592","MEAN_MOTION_DOT":"0.00000672","RA_OF_ASC_NODE":"69.0269","DECAY_DATE":null,"REV_AT_EPOCH":"10107","ARG_OF_PERICENTER":"60.7399","TLE_LINE1":"1 45671U 20035Q   22085.67925457  .00000672  00000-0  64020-4 0  9996","RCS_SIZE":"LARGE","CENTER_NAME":"EARTH","ECCENTRICITY":"0.00018650","MEAN_ELEMENT_THEORY":"SGP4","ELEMENT_SET_NO":"999","MEAN_MOTION":"15.06399580"},{"MEAN_MOTION":"15.06396708","MEAN_ELEMENT_THEORY":"SGP4","ECCENTRICITY":"0.00016390","ELEMENT_SET_NO":"999","REV_AT_EPOCH":"10152","DECAY_DATE":null,"MEAN_MOTION_DOT":"0.00001766","PERIOD":"95.592","RA_OF_ASC_NODE":"38.3978","NORAD_CAT_ID":"45672","CENTER_NAME":"EARTH","RCS_SIZE":"LARGE","TLE_LINE1":"1 45672U 20035R   22085.82207637  .00001766  00000-0  13744-3 0  9998","ARG_OF_PERICENTER":"58.5081","INCLINATION":"53.0559","REF_FRAME":"TEME","SITE":"AFETR","MEAN_MOTION_DDOT":"0.0000000000000","OBJECT_NAME":"STARLINK-1455","GP_ID":"199778310","EPOCH":"2022-03-26T19:43:47.398368","MEAN_ANOMALY":"301.6068","PERIAPSIS":"546.089","APOAPSIS":"548.359","OBJECT_TYPE":"PAYLOAD","FILE":"3375650","BSTAR":"0.00013744000000","SEMIMAJOR_AXIS":"6925.359","EPHEMERIS_TYPE":"0","TIME_SYSTEM":"UTC","CLASSIFICATION_TYPE":"U","COUNTRY_CODE":"US","OBJECT_ID":"2020-035R","LAUNCH_DATE":"2020-06-04","TLE_LINE2":"2 45672  53.0559  38.3978 0001639  58.5081 301.6068 15.06396708101525"},{"MEAN_ANOMALY":"306.7025","PERIAPSIS":"545.905","APOAPSIS":"548.538","OBJECT_TYPE":"PAYLOAD","SEMIMAJOR_AXIS":"6925.356","EPHEMERIS_TYPE":"0","FILE":"3375254","BSTAR":"-0.00002508700000","COUNTRY_CODE":"US","TIME_SYSTEM":"UTC","CLASSIFICATION_TYPE":"U","OBJECT_ID":"2020-035S","LAUNCH_DATE":"2020-06-04","TLE_LINE2":"2 45673  53.0528  70.7439 0001901  53.4138 306.7025 15.06397468101032","MEAN_MOTION":"15.06397468","ELEMENT_SET_NO":"999","ECCENTRICITY":"0.00019010","MEAN_ELEMENT_THEORY":"SGP4","CENTER_NAME":"EARTH","RCS_SIZE":"LARGE","TLE_LINE1":"1 45673U 20035S   22085.29590637 -.00000655  00000-0 -25087-4 0  9997","ARG_OF_PERICENTER":"53.4138","REV_AT_EPOCH":"10103","DECAY_DATE":null,"RA_OF_ASC_NODE":"70.7439","PERIOD":"95.592","MEAN_MOTION_DOT":"-0.00000655","NORAD_CAT_ID":"45673","MEAN_MOTION_DDOT":"0.0000000000000","OBJECT_NAME":"STARLINK-1456","GP_ID":"199744114","EPOCH":"2022-03-26T07:06:06.310368","INCLINATION":"53.0528","SITE":"AFETR","REF_FRAME":"TEME"},{"SITE":"AFETR","REF_FRAME":"TEME","INCLINATION":"53.0549","GP_ID":"199742862","EPOCH":"2022-03-26T08:52:15.849696","OBJECT_NAME":"STARLINK-1457","MEAN_MOTION_DDOT":"0.0000000000000","NORAD_CAT_ID":"45674","RA_OF_ASC_NODE":"70.4187","PERIOD":"95.592","MEAN_MOTION_DOT":"-0.00000192","REV_AT_EPOCH":"10101","DECAY_DATE":null,"ARG_OF_PERICENTER":"67.8664","TLE_LINE1":"1 45674U 20035T   22085.36962789 -.00000192  00000-0  59974-5 0  9995","RCS_SIZE":"LARGE","CENTER_NAME":"EARTH","MEAN_ELEMENT_THEORY":"SGP4","ECCENTRICITY":"0.00017010","ELEMENT_SET_NO":"999","MEAN_MOTION":"15.06399785","TLE_LINE2":"2 45674  53.0549  70.4187 0001701  67.8664 292.2506 15.06399785101019","OBJECT_ID":"2020-035T","LAUNCH_DATE":"2020-06-04","CLASSIFICATION_TYPE":"U","TIME_SYSTEM":"UTC","COUNTRY_CODE":"US","BSTAR":"0.00000599740000","FILE":"3375254","EPHEMERIS_TYPE":"0","SEMIMAJOR_AXIS":"6925.349","OBJECT_TYPE":"PAYLOAD","PERIAPSIS":"546.036","APOAPSIS":"548.392","MEAN_ANOMALY":"292.2506"},{"FILE":"3375650","BSTAR":"0.00007314400000","SEMIMAJOR_AXIS":"6925.349","EPHEMERIS_TYPE":"0","MEAN_ANOMALY":"314.2319","APOAPSIS":"548.778","PERIAPSIS":"545.650","OBJECT_TYPE":"PAYLOAD","OBJECT_ID":"2020-035U","LAUNCH_DATE":"2020-06-04","TLE_LINE2":"2 45675  53.0546  68.3801 0002259  45.8855 314.2319 15.06399858101077","TIME_SYSTEM":"UTC","CLASSIFICATION_TYPE":"U","COUNTRY_CODE":"US","MEAN_ELEMENT_THEORY":"SGP4","ECCENTRICITY":"0.00022590","ELEMENT_SET_NO":"999","MEAN_MOTION":"15.06399858","INCLINATION":"53.0546","SITE":"AFETR","REF_FRAME":"TEME","MEAN_MOTION_DDOT":"0.0000000000000","OBJECT_NAME":"STARLINK-1458","GP_ID":"199777559","EPOCH":"2022-03-26T19:45:07.702848","REV_AT_EPOCH":"10107","DECAY_DATE":null,"RA_OF_ASC_NODE":"68.3801","PERIOD":"95.592","MEAN_MOTION_DOT":"0.00000808","NORAD_CAT_ID":"45675","CENTER_NAME":"EARTH","RCS_SIZE":"LARGE","TLE_LINE1":"1 45675U 20035U   22085.82300582  .00000808  00000-0  73144-4 0  9991","ARG_OF_PERICENTER":"45.8855"},{"EPHEMERIS_TYPE":"0","SEMIMAJOR_AXIS":"6925.375","BSTAR":"-0.00002097300000","FILE":"3375650","OBJECT_TYPE":"PAYLOAD","APOAPSIS":"548.522","PERIAPSIS":"545.958","MEAN_ANOMALY":"311.8620","TLE_LINE2":"2 45676  53.0559  69.1176 0001851  48.2527 311.8620 15.06391366101047","OBJECT_ID":"2020-035V","LAUNCH_DATE":"2020-06-04","COUNTRY_CODE":"US","CLASSIFICATION_TYPE":"U","TIME_SYSTEM":"UTC","ELEMENT_SET_NO":"999","ECCENTRICITY":"0.00018510","MEAN_ELEMENT_THEORY":"SGP4","MEAN_MOTION":"15.06391366","GP_ID":"199777810","EPOCH":"2022-03-26T15:51:35.629056","OBJECT_NAME":"STARLINK-1460","MEAN_MOTION_DDOT":"0.0000000000000","SITE":"AFETR","REF_FRAME":"TEME","INCLINATION":"53.0559","ARG_OF_PERICENTER":"48.2527","TLE_LINE1":"1 45676U 20035V   22085.66082904 -.00000594  00000-0 -20973-4 0  9995","RCS_SIZE":"LARGE","CENTER_NAME":"EARTH","NORAD_CAT_ID":"45676","PERIOD":"95.593","RA_OF_ASC_NODE":"69.1176","MEAN_MOTION_DOT":"-0.00000594","REV_AT_EPOCH":"10104","DECAY_DATE":null},{"ELEMENT_SET_NO":"999","MEAN_ELEMENT_THEORY":"SGP4","ECCENTRICITY":"0.00020270","MEAN_MOTION":"15.06394113","OBJECT_NAME":"STARLINK-1392","EPOCH":"2022-03-26T16:07:30.702432","GP_ID":"199778561","MEAN_MOTION_DDOT":"0.0000000000000","INCLINATION":"53.0537","REF_FRAME":"TEME","SITE":"AFETR","TLE_LINE1":"1 45677U 20035W   22085.67188313 -.00000398  00000-0 -78100-5 0  9996","ARG_OF_PERICENTER":"50.0456","CENTER_NAME":"EARTH","RCS_SIZE":"LARGE","NORAD_CAT_ID":"45677","DECAY_DATE":null,"REV_AT_EPOCH":"10108","RA_OF_ASC_NODE":"69.0681","PERIOD":"95.593","MEAN_MOTION_DOT":"-0.00000398","SEMIMAJOR_AXIS":"6925.367","EPHEMERIS_TYPE":"0","FILE":"3375650","BSTAR":"-0.00000781000000","PERIAPSIS":"545.828","APOAPSIS":"548.635","OBJECT_TYPE":"PAYLOAD","MEAN_ANOMALY":"310.0711","LAUNCH_DATE":"2020-06-04","OBJECT_ID":"2020-035W","TLE_LINE2":"2 45677  53.0537  69.0681 0002027  50.0456 310.0711 15.06394113101081","COUNTRY_CODE":"US","CLASSIFICATION_TYPE":"U","TIME_SYSTEM":"UTC"},{"TLE_LINE2":"2 45678  53.0547  60.2738 0001802  54.3181 305.7976 15.06398631101163","OBJECT_ID":"2020-035X","LAUNCH_DATE":"2020-06-04","CLASSIFICATION_TYPE":"U","TIME_SYSTEM":"UTC","COUNTRY_CODE":"US","FILE":"3375254","BSTAR":"-0.00002383900000","EPHEMERIS_TYPE":"0","SEMIMAJOR_AXIS":"6925.353","OBJECT_TYPE":"PAYLOAD","PERIAPSIS":"545.970","APOAPSIS":"548.466","MEAN_ANOMALY":"305.7976","REF_FRAME":"TEME","SITE":"AFETR","INCLINATION":"53.0547","GP_ID":"199743363","EPOCH":"2022-03-26T09:36:04.073760","OBJECT_NAME":"STARLINK-1393","MEAN_MOTION_DDOT":"0.0000000000000","NORAD_CAT_ID":"45678","MEAN_MOTION_DOT":"-0.00000637","PERIOD":"95.592","RA_OF_ASC_NODE":"60.2738","DECAY_DATE":null,"REV_AT_EPOCH":"10116","ARG_OF_PERICENTER":"54.3181","TLE_LINE1":"1 45678U 20035X   22085.40004715 -.00000637  00000-0 -23839-4 0  9995","RCS_SIZE":"LARGE","CENTER_NAME":"EARTH","ECCENTRICITY":"0.00018020","MEAN_ELEMENT_THEORY":"SGP4","ELEMENT_SET_NO":"999","MEAN_MOTION":"15.06398631"}];
